OBJECT_NAME,OBJECT_ID,EPOCH,MEAN_MOTION,ECCENTRICITY,INCLINATION,RA_OF_ASC_NODE,ARG_OF_PERICENTER,MEAN_ANOMALY,EPHEMERIS_TYPE,CLASSIFICATION_TYPE,NORAD_CAT_ID,ELEMENT_SET_NO,REV_AT_EPOCH,BSTAR,MEAN_MOTION_DOT,MEAN_MOTION_DDOT
COSMO-SKYMED 1,2007-023A,2026-07-15T03:19:30.261216,14.97219144,.000142,97.8845,28.2308,103.2343,256.9037,0,U,31598,999,3397,.12519E-3,.1388E-4,0
COSMOS 2428,2007-029A,2026-07-14T16:23:56.182560,14.12934086,.00072101,70.9382,296.7461,82.3000,277.8939,0,U,31792,999,98203,.14768636E-3,.227E-5,0
SL-16 R/B,2007-029B,2026-07-15T04:05:59.750880,14.14851718,.0001963,70.9744,264.4039,256.2058,132.2061,0,U,31793,999,98340,.11742E-3,.179E-5,0
KORONAS-FOTON,2009-003A,2026-07-14T23:23:47.001984,15.46294264,.0012208,82.4308,143.2609,63.1383,297.1113,0,U,33504,999,96539,.1452E-3,.7211E-4,0
CZ-2C R/B,2011-030B,2026-07-14T20:47:07.017216,14.81531981,.00508426,97.8670,150.7563,297.2604,116.0528,0,U,37731,999,80892,.68501514E-4,.493E-5,0
H-2A R/B,2012-025E,2026-07-14T23:38:48.302592,14.95837225,.0042487,98.4847,173.4279,255.8348,103.8148,0,U,38341,999,76724,.50311E-4,.5E-5,0
SHIJIAN-16 (SJ-16),2013-057A,2026-07-15T04:32:28.661568,14.92671889,.0015781,74.9742,303.6451,164.7410,195.4257,0,U,39358,999,69052,.11031E-3,.1111E-4,0
SL-4 R/B,2014-021B,2026-07-15T01:21:31.808160,15.42481576,.0089688,51.6065,74.1835,207.9742,151.6407,0,U,39679,999,67591,.13029E-3,.6166E-4,0
ALOS-2,2014-029A,2026-07-15T00:05:37.485312,14.79471561,.0001572,97.9235,292.7698,91.6542,268.4849,0,U,39766,999,65569,.29807E-4,.171E-5,0
YAOGAN-29,2015-069A,2026-07-15T04:14:40.190784,14.83107495,.0000689,98.0018,224.8524,14.9555,345.1678,0,U,41038,999,57477,.73369E-4,.544E-5,0
ASTRO-H (HITOMI),2016-012A,2026-07-15T04:24:00.897408,15.10632563,.0009615,30.9981,253.3643,175.2176,184.8555,0,U,41337,999,57152,.71514E-4,.1309E-4,0
HXMT (HUIYAN),2017-034A,2026-07-15T00:32:34.341216,15.18687725,.0032312,43.0154,28.0210,319.7214,40.1242,0,U,42758,999,50189,.11692E-3,.2254E-4,0
SAOCOM 1A,2018-076A,2026-07-15T03:40:12.530784,14.82148631,.0001477,97.8880,22.4949,86.1673,273.9709,0,U,43641,999,42024,.75519E-4,.549E-5,0
H-2A R/B,2018-084L,2026-07-15T03:49:02.839296,15.46200419,.0020568,98.8533,81.1813,300.7670,59.1549,0,U,43682,999,42544,.25414E-3,.12465E-3,0
SAOCOM 1B,2020-059A,2026-07-15T04:25:08.531328,14.82156125,.0001522,97.8884,21.6219,81.5889,278.5497,0,U,46265,999,31763,-.48364E-4,-.437E-5,0
CSS (TIANHE),2021-035A,2026-07-15T03:37:13.255104,15.58088411,.0001842,41.4681,152.0989,294.2158,65.8488,0,U,48274,999,29753,.19607E-4,.1188E-4,0
COSMOS 2550,2021-056A,2026-07-15T04:39:25.418016,15.33827831,.0008506,67.1434,15.1867,270.4017,89.6163,0,U,48865,999,28301,.91861E-4,.2831E-4,0
CZ-2C R/B,2022-058K,2026-07-14T22:14:47.560704,15.63843246,.0030271,50.1858,18.9624,21.4847,338.7391,0,U,52794,999,22998,.28999E-3,.27981E-3,0
CZ-2C R/B,2022-132E,2026-07-15T00:16:32.587392,15.74969028,.0009519,97.2888,204.3490,342.9929,17.1016,0,U,54039,999,21032,.33281E-3,.49456E-3,0
GSLV R/B,2022-138AN,2026-07-14T20:27:51.424128,14.97381639,.00235866,87.3817,123.6945,53.3291,307.0104,0,U,54149,999,20295,.1073975E-3,.1284E-4,0
XRISM,2023-137A,2026-07-15T02:30:17.090208,15.12668532,.0007919,31.0008,178.7325,245.3126,114.6689,0,U,57800,999,15709,.10614E-3,.2002E-4,0
ACS3,2024-077B,2026-07-15T04:22:54.435072,13.95283059,.0125612,97.1737,108.7668,36.6897,324.2790,0,U,59588,999,11194,.30675E-2,.4404E-4,0
SPACEMOBILE-003,2024-163A,2026-07-15T03:32:35.117088,15.20704793,.0004683,52.9668,180.8624,193.3819,166.7052,0,U,61045,999,10202,.57545E-4,.955E-5,0
SPACEMOBILE-005,2024-163B,2026-07-15T03:08:44.706336,15.20720938,.0008712,52.9764,180.8869,195.3968,164.6762,0,U,61046,999,10201,.11521E-3,.224E-4,0
SPACEMOBILE-001,2024-163C,2026-07-15T03:06:22.002912,15.20741003,.0007226,52.9735,180.6052,193.3954,166.6849,0,U,61047,999,10201,.18282E-4,.79E-6,0
SPACEMOBILE-002,2024-163D,2026-07-15T04:17:46.552992,15.20783904,.0006031,52.9777,180.4166,191.7990,168.2864,0,U,61048,999,10202,.22847E-3,.4776E-4,0
SPACEMOBILE-004,2024-163E,2026-07-12T09:38:01.727232,15.20795560,.0006853,52.9682,192.9673,216.7757,143.2768,0,U,61049,999,10160,.58302E-3,.12717E-3,0
CZ-8A R/B,2025-231K,2026-07-15T05:04:33.205152,14.30162216,.011657,50.0043,280.0895,322.6656,36.6200,0,U,66004,999,3895,.40301E-4,-.51E-6,0
SZ-21 MODULE,2025-246C,2026-07-15T00:08:30.178176,15.78799904,.0008363,41.4717,133.7507,219.7242,140.2991,0,U,66515,999,3813,.19407E-3,.35069E-3,0
SPACEMOBILE-006,2025-309A,2026-07-15T00:19:20.910144,15.18653340,.0010122,52.9933,204.1671,214.6929,145.3405,0,U,67232,999,3082,.46475E-4,.653E-5,0
