COSMO-SKYMED 1          
1 31598U 07023A   26196.13854469  .00001388  00000+0  12519-3 0  9992
2 31598  97.8845  28.2308 0001420 103.2343 256.9037 14.97219144 33971
COSMOS 2428             
1 31792U 07029A   26195.68328915  .00000227  00000+0  14769-3 0  9995
2 31792  70.9382 296.7461 0007210  82.3000 277.8939 14.12934086982036
SL-16 R/B               
1 31793U 07029B   26196.17083045  .00000179  00000+0  11742-3 0  9997
2 31793  70.9744 264.4039 0001963 256.2058 132.2061 14.14851718983400
KORONAS-FOTON           
1 33504U 09003A   26195.97484956  .00007211  00000+0  14520-3 0  9997
2 33504  82.4308 143.2609 0012208  63.1383 297.1113 15.46294264965393
CZ-2C R/B               
1 37731U 11030B   26195.86605344  .00000493  00000+0  68502-4 0  9995
2 37731  97.8670 150.7563 0050842 297.2604 116.0528 14.81531981808927
H-2A R/B                
1 38341U 12025E   26195.98528128  .00000500  00000+0  50311-4 0  9993
2 38341  98.4847 173.4279 0042487 255.8348 103.8148 14.95837225767241
SHIJIAN-16 (SJ-16)      
1 39358U 13057A   26196.18922062  .00001111  00000+0  11031-3 0  9990
2 39358  74.9742 303.6451 0015781 164.7410 195.4257 14.92671889690520
SL-4 R/B                
1 39679U 14021B   26196.05661815  .00006166  00000+0  13029-3 0  9994
2 39679  51.6065  74.1835 0089688 207.9742 151.6407 15.42481576675912
ALOS-2                  
1 39766U 14029A   26196.00390608  .00000171  00000+0  29807-4 0  9995
2 39766  97.9235 292.7698 0001572  91.6542 268.4849 14.79471561655690
YAOGAN-29               
1 41038U 15069A   26196.17685406  .00000544  00000+0  73369-4 0  9992
2 41038  98.0018 224.8524 0000689  14.9555 345.1678 14.83107495574779
ASTRO-H (HITOMI)        
1 41337U 16012A   26196.18334372  .00001309  00000+0  71514-4 0  9997
2 41337  30.9981 253.3643 0009615 175.2176 184.8555 15.10632563571524
HXMT (HUIYAN)           
1 42758U 17034A   26196.02261969  .00002254  00000+0  11692-3 0  9994
2 42758  43.0154  28.0210 0032312 319.7214  40.1242 15.18687725501892
SAOCOM 1A               
1 43641U 18076A   26196.15292281  .00000549  00000+0  75519-4 0  9992
2 43641  97.8880  22.4949 0001477  86.1673 273.9709 14.82148631420247
H-2A R/B                
1 43682U 18084L   26196.15906064  .00012465  00000+0  25414-3 0  9995
2 43682  98.8533  81.1813 0020568 300.7670  59.1549 15.46200419425441
SAOCOM 1B               
1 46265U 20059A   26196.18412652 -.00000437  00000+0 -48364-4 0  9996
2 46265  97.8884  21.6219 0001522  81.5889 278.5497 14.82156125317636
CSS (TIANHE)            
1 48274U 21035A   26196.15084786  .00001188  00000+0  19607-4 0  9993
2 48274  41.4681 152.0989 0001842 294.2158  65.8488 15.58088411297537
COSMOS 2550             
1 48865U 21056A   26196.19404419  .00002831  00000+0  91861-4 0  9993
2 48865  67.1434  15.1867 0008506 270.4017  89.6163 15.33827831283014
CZ-2C R/B               
1 52794U 22058K   26195.92693936  .00027981  00000+0  28999-3 0  9990
2 52794  50.1858  18.9624 0030271  21.4847 338.7391 15.63843246229981
CZ-2C R/B               
1 54039U 22132E   26196.01148828  .00049456  00000+0  33281-3 0  9994
2 54039  97.2888 204.3490 0009519 342.9929  17.1016 15.74969028210324
GSLV R/B                
1 54149U 22138AN  26195.85267852  .00001284  00000+0  10740-3 0  9994
2 54149  87.3817 123.6945 0023586  53.3291 307.0104 14.97381639202950
XRISM                   
1 57800U 23137A   26196.10436447  .00002002  00000+0  10614-3 0  9997
2 57800  31.0008 178.7325 0007919 245.3126 114.6689 15.12668532157092
ACS3                    
1 59588U 24077B   26196.18257448  .00004404  00000+0  30675-2 0  9992
2 59588  97.1737 108.7668 0125612  36.6897 324.2790 13.95283059111941
SPACEMOBILE-003         
1 61045U 24163A   26196.14762867  .00000955  00000+0  57545-4 0  9995
2 61045  52.9668 180.8624 0004683 193.3819 166.7052 15.20704793102028
SPACEMOBILE-005         
1 61046U 24163B   26196.13107299  .00002240  00000+0  11521-3 0  9999
2 61046  52.9764 180.8869 0008712 195.3968 164.6762 15.20720938102014
SPACEMOBILE-001         
1 61047U 24163C   26196.12942133  .00000079  00000+0  18282-4 0  9993
2 61047  52.9735 180.6052 0007226 193.3954 166.6849 15.20741003102011
SPACEMOBILE-002         
1 61048U 24163D   26196.17901103  .00004776  00000+0  22847-3 0  9990
2 61048  52.9777 180.4166 0006031 191.7990 168.2864 15.20783904102029
SPACEMOBILE-004         
1 61049U 24163E   26193.40140888  .00012717  00000+0  58302-3 0  9998
2 61049  52.9682 192.9673 0006853 216.7757 143.2768 15.20795560101607
CZ-8A R/B               
1 66004U 25231K   26196.21149543 -.00000051  00000+0  40301-4 0  9990
2 66004  50.0043 280.0895 0116570 322.6656  36.6200 14.30162216 38950
SZ-21 MODULE            
1 66515U 25246C   26196.00590484  .00035069  00000+0  19407-3 0  9992
2 66515  41.4717 133.7507 0008363 219.7242 140.2991 15.78799904 38132
SPACEMOBILE-006         
1 67232U 25309A   26196.01343646  .00000653  00000+0  46475-4 0  9993
2 67232  52.9933 204.1671 0010122 214.6929 145.3405 15.18653340 30824
